{
  "type": "FeatureCollection",
  "features": [
    {
      "type": "Feature",
      "properties": {
        "norad_id": 37781,
        "name": "HAIYANG-2A",
        "group": "resource",
        "lat": -79.50763390458091,
        "lon": 55.509168583459555,
        "alt_km": 976.4591249321729,
        "timestamp": "2025-12-17T23:38:06.519916+00:00",
        "meta_object_name": "HAIYANG-2A",
        "meta_object_id": "2011-043A",
        "meta_epoch": "2025-12-17T15:20:24.944640",
        "meta_mean_motion": 13.78835074,
        "meta_eccentricity": 0.00016399,
        "meta_inclination": 99.3375,
        "meta_ra_of_asc_node": 352.4985,
        "meta_arg_of_pericenter": 76.0696,
        "meta_mean_anomaly": 284.0638,
        "meta_ephemeris_type": 0,
        "meta_classification_type": "U",
        "meta_norad_cat_id": 37781,
        "meta_element_set_no": 999,
        "meta_rev_at_epoch": 72166,
        "meta_bstar": -0.00011147799,
        "meta_mean_motion_dot": -1.58e-06,
        "meta_mean_motion_ddot": 0,
        "tle_line1": "1 37781U 11043A   25351.63917760 -.00000158  00000+0 -11148-3 0  9993",
        "tle_line2": "2 37781  99.3375 352.4985 0001639  76.0696 284.0638 13.78835074721662"
      },
      "geometry": {
        "type": "Point",
        "coordinates": [
          55.509168583459555,
          -79.50763390458091
        ]
      }
    },
    {
      "type": "Feature",
      "properties": {
        "norad_id": 37791,
        "name": "RASAT",
        "group": "resource",
        "lat": -81.91214735811828,
        "lon": 167.34224103972625,
        "alt_km": 686.5204109065744,
        "timestamp": "2025-12-17T23:38:06.519927+00:00",
        "meta_object_name": "RASAT",
        "meta_object_id": "2011-044D",
        "meta_epoch": "2025-12-17T12:50:57.156000",
        "meta_mean_motion": 14.67916865,
        "meta_eccentricity": 0.002171,
        "meta_inclination": 98.0648,
        "meta_ra_of_asc_node": 80.7218,
        "meta_arg_of_pericenter": 50.4614,
        "meta_mean_anomaly": 6.7379,
        "meta_ephemeris_type": 0,
        "meta_classification_type": "U",
        "meta_norad_cat_id": 37791,
        "meta_element_set_no": 999,
        "meta_rev_at_epoch": 76653,
        "meta_bstar": 0.00010440836,
        "meta_mean_motion_dot": 5.5e-06,
        "meta_mean_motion_ddot": 0,
        "tle_line1": "1 37791U 11044D   25351.53538375  .00000550  00000+0  10441-3 0  9994",
        "tle_line2": "2 37791  98.0648  80.7218 0021710  50.4614   6.7379 14.67916865766533"
      },
      "geometry": {
        "type": "Point",
        "coordinates": [
          167.34224103972625,
          -81.91214735811828
        ]
      }
    },
    {
      "type": "Feature",
      "properties": {
        "norad_id": 37841,
        "name": "SRMSAT",
        "group": "resource",
        "lat": 11.365764751387172,
        "lon": -137.39749623940716,
        "alt_km": 856.1936919480959,
        "timestamp": "2025-12-17T23:38:06.519937+00:00",
        "meta_object_name": "SRMSAT",
        "meta_object_id": "2011-058D",
        "meta_epoch": "2025-12-17T14:36:14.562432",
        "meta_mean_motion": 14.11513105,
        "meta_eccentricity": 0.0011885,
        "meta_inclination": 19.972,
        "meta_ra_of_asc_node": 78.4836,
        "meta_arg_of_pericenter": 7.0463,
        "meta_mean_anomaly": 21.298,
        "meta_ephemeris_type": 0,
        "meta_classification_type": "U",
        "meta_norad_cat_id": 37841,
        "meta_element_set_no": 999,
        "meta_rev_at_epoch": 73213,
        "meta_bstar": 7.3050656e-05,
        "meta_mean_motion_dot": 3.99e-06,
        "meta_mean_motion_ddot": 0,
        "tle_line1": "1 37841U 11058D   25351.60850188  .00000399  00000+0  73051-4 0  9990",
        "tle_line2": "2 37841  19.9720  78.4836 0011885   7.0463  21.2980 14.11513105732132"
      },
      "geometry": {
        "type": "Point",
        "coordinates": [
          -137.39749623940716,
          11.365764751387172
        ]
      }
    },
    {
      "type": "Feature",
      "properties": {
        "norad_id": 38012,
        "name": "PLEIADES 1A",
        "group": "resource",
        "lat": -68.1193532377108,
        "lon": -136.32139003596555,
        "alt_km": 705.9038527696712,
        "timestamp": "2025-12-17T23:38:06.519947+00:00",
        "meta_object_name": "PLEIADES 1A",
        "meta_object_id": "2011-076F",
        "meta_epoch": "2025-12-17T16:38:44.323584",
        "meta_mean_motion": 14.58566247,
        "meta_eccentricity": 0.00011929,
        "meta_inclination": 98.1823,
        "meta_ra_of_asc_node": 64.3857,
        "meta_arg_of_pericenter": 71.4186,
        "meta_mean_anomaly": 89.8835,
        "meta_ephemeris_type": 0,
        "meta_classification_type": "U",
        "meta_norad_cat_id": 38012,
        "meta_element_set_no": 999,
        "meta_rev_at_epoch": 74553,
        "meta_bstar": 7.3856826e-05,
        "meta_mean_motion_dot": 2.98e-06,
        "meta_mean_motion_ddot": 0,
        "tle_line1": "1 38012U 11076F   25351.69356856  .00000298  00000+0  73857-4 0  9995",
        "tle_line2": "2 38012  98.1823  64.3857 0001192  71.4186  89.8835 14.58566247745533"
      },
      "geometry": {
        "type": "Point",
        "coordinates": [
          -136.32139003596555,
          -68.1193532377108
        ]
      }
    },
    {
      "type": "Feature",
      "properties": {
        "norad_id": 38038,
        "name": "ZIYUAN 1-02C (ZY 1-02C)",
        "group": "resource",
        "lat": 49.171638472593315,
        "lon": -112.21133397182265,
        "alt_km": 755.3450538837296,
        "timestamp": "2025-12-17T23:38:06.519958+00:00",
        "meta_object_name": "ZIYUAN 1-02C (ZY 1-02C)",
        "meta_object_id": "2011-079A",
        "meta_epoch": "2025-12-17T15:24:23.203872",
        "meta_mean_motion": 14.38017831,
        "meta_eccentricity": 0.000736,
        "meta_inclination": 98.4333,
        "meta_ra_of_asc_node": 57.5654,
        "meta_arg_of_pericenter": 125.5153,
        "meta_mean_anomaly": 30.5759,
        "meta_ephemeris_type": 0,
        "meta_classification_type": "U",
        "meta_norad_cat_id": 38038,
        "meta_element_set_no": 999,
        "meta_rev_at_epoch": 73311,
        "meta_bstar": 0.0001494138,
        "meta_mean_motion_dot": 4.09e-06,
        "meta_mean_motion_ddot": 0,
        "tle_line1": "1 38038U 11079A   25351.64193523  .00000409  00000+0  14941-3 0  9993",
        "tle_line2": "2 38038  98.4333  57.5654 0007360 125.5153  30.5759 14.38017831733114"
      },
      "geometry": {
        "type": "Point",
        "coordinates": [
          -112.21133397182265,
          49.171638472593315
        ]
      }
    },
    {
      "type": "Feature",
      "properties": {
        "norad_id": 38338,
        "name": "ARIRANG-3 (KOMPSAT-3)",
        "group": "resource",
        "lat": -26.273048014237613,
        "lon": 122.46471915160534,
        "alt_km": 694.7892984273121,
        "timestamp": "2025-12-17T23:38:06.519968+00:00",
        "meta_object_name": "ARIRANG-3 (KOMPSAT-3)",
        "meta_object_id": "2012-025B",
        "meta_epoch": "2025-12-17T14:28:43.368672",
        "meta_mean_motion": 14.61719232,
        "meta_eccentricity": 0.0005049,
        "meta_inclination": 98.3328,
        "meta_ra_of_asc_node": 306.2294,
        "meta_arg_of_pericenter": 322.1174,
        "meta_mean_anomaly": 37.9671,
        "meta_ephemeris_type": 0,
        "meta_classification_type": "U",
        "meta_norad_cat_id": 38338,
        "meta_element_set_no": 999,
        "meta_rev_at_epoch": 72481,
        "meta_bstar": 0.00010510873,
        "meta_mean_motion_dot": 4.75e-06,
        "meta_mean_motion_ddot": 0,
        "tle_line1": "1 38338U 12025B   25351.60327973  .00000475  00000+0  10511-3 0  9994",
        "tle_line2": "2 38338  98.3328 306.2294 0005049 322.1174  37.9671 14.61719232724815"
      },
      "geometry": {
        "type": "Point",
        "coordinates": [
          122.46471915160534,
          -26.273048014237613
        ]
      }
    },
    {
      "type": "Feature",
      "properties": {
        "norad_id": 38709,
        "name": "EXACTVIEW-1 (ADS-1B)",
        "group": "resource",
        "lat": -49.65375131704703,
        "lon": -90.22371264915431,
        "alt_km": 817.9931964627503,
        "timestamp": "2025-12-17T23:38:06.519978+00:00",
        "meta_object_name": "EXACTVIEW-1 (ADS-1B)",
        "meta_object_id": "2012-039C",
        "meta_epoch": "2025-12-17T14:07:48.052704",
        "meta_mean_motion": 14.24909909,
        "meta_eccentricity": 0.0010425,
        "meta_inclination": 98.9638,
        "meta_ra_of_asc_node": 100.0805,
        "meta_arg_of_pericenter": 339.9535,
        "meta_mean_anomaly": 20.1233,
        "meta_ephemeris_type": 0,
        "meta_classification_type": "U",
        "meta_norad_cat_id": 38709,
        "meta_element_set_no": 999,
        "meta_rev_at_epoch": 69684,
        "meta_bstar": 6.6505089e-05,
        "meta_mean_motion_dot": 1.09e-06,
        "meta_mean_motion_ddot": 0,
        "tle_line1": "1 38709U 12039C   25351.58875061  .00000109  00000+0  66505-4 0  9993",
        "tle_line2": "2 38709  98.9638 100.0805 0010425 339.9535  20.1233 14.24909909696846"
      },
      "geometry": {
        "type": "Point",
        "coordinates": [
          -90.22371264915431,
          -49.65375131704703
        ]
      }
    }
  ]
}